<?xml version="1.0" encoding="UTF-8"?>
<ndm xmlns:xsi="http://www.w3.org/2001/XMLSchema-instance" xsi:noNamespaceSchemaLocation="https://sanaregistry.org/r/ndmxml_unqualified/ndmxml-2.0.0-master-2.0.xsd">
<omm id="CCSDS_OMM_VERS" version="2.0">
<header><CREATION_DATE/><ORIGINATOR/></header><body><segment><metadata><OBJECT_NAME>KUIPER-00069</OBJECT_NAME><OBJECT_ID>2025-151A</OBJECT_ID><CENTER_NAME>EARTH</CENTER_NAME><REF_FRAME>TEME</REF_FRAME><TIME_SYSTEM>UTC</TIME_SYSTEM><MEAN_ELEMENT_THEORY>SGP4</MEAN_ELEMENT_THEORY></metadata><data><meanElements><EPOCH>2025-08-01T14:25:43.334400</EPOCH><MEAN_MOTION>15.35724265</MEAN_MOTION><ECCENTRICITY>.0004993</ECCENTRICITY><INCLINATION>51.8776</INCLINATION><RA_OF_ASC_NODE>208.8395</RA_OF_ASC_NODE><ARG_OF_PERICENTER>194.0875</ARG_OF_PERICENTER><MEAN_ANOMALY>165.9972</MEAN_ANOMALY></meanElements><tleParameters><EPHEMERIS_TYPE>0</EPHEMERIS_TYPE><CLASSIFICATION_TYPE>U</CLASSIFICATION_TYPE><NORAD_CAT_ID>64816</NORAD_CAT_ID><ELEMENT_SET_NO>999</ELEMENT_SET_NO><REV_AT_EPOCH>368</REV_AT_EPOCH><BSTAR>.65707E-3</BSTAR><MEAN_MOTION_DOT>.22874E-3</MEAN_MOTION_DOT><MEAN_MOTION_DDOT>0</MEAN_MOTION_DDOT></tleParameters></data></segment></body></omm>
<omm id="CCSDS_OMM_VERS" version="2.0">
<header><CREATION_DATE/><ORIGINATOR/></header><body><segment><metadata><OBJECT_NAME>KUIPER-00070</OBJECT_NAME><OBJECT_ID>2025-151B</OBJECT_ID><CENTER_NAME>EARTH</CENTER_NAME><REF_FRAME>TEME</REF_FRAME><TIME_SYSTEM>UTC</TIME_SYSTEM><MEAN_ELEMENT_THEORY>SGP4</MEAN_ELEMENT_THEORY></metadata><data><meanElements><EPOCH>2025-08-01T14:00:01.999872</EPOCH><MEAN_MOTION>15.31219291</MEAN_MOTION><ECCENTRICITY>.0005178</ECCENTRICITY><INCLINATION>51.8782</INCLINATION><RA_OF_ASC_NODE>209.0895</RA_OF_ASC_NODE><ARG_OF_PERICENTER>226.8927</ARG_OF_PERICENTER><MEAN_ANOMALY>321.3120</MEAN_ANOMALY></meanElements><tleParameters><EPHEMERIS_TYPE>0</EPHEMERIS_TYPE><CLASSIFICATION_TYPE>U</CLASSIFICATION_TYPE><NORAD_CAT_ID>64817</NORAD_CAT_ID><ELEMENT_SET_NO>999</ELEMENT_SET_NO><REV_AT_EPOCH>246</REV_AT_EPOCH><BSTAR>-.29341E-1</BSTAR><MEAN_MOTION_DOT>-.830406E-2</MEAN_MOTION_DOT><MEAN_MOTION_DDOT>0</MEAN_MOTION_DDOT></tleParameters></data></segment></body></omm>
<omm id="CCSDS_OMM_VERS" version="2.0">
<header><CREATION_DATE/><ORIGINATOR/></header><body><segment><metadata><OBJECT_NAME>KUIPER-00071</OBJECT_NAME><OBJECT_ID>2025-151C</OBJECT_ID><CENTER_NAME>EARTH</CENTER_NAME><REF_FRAME>TEME</REF_FRAME><TIME_SYSTEM>UTC</TIME_SYSTEM><MEAN_ELEMENT_THEORY>SGP4</MEAN_ELEMENT_THEORY></metadata><data><meanElements><EPOCH>2025-08-01T12:53:27.580992</EPOCH><MEAN_MOTION>15.35714464</MEAN_MOTION><ECCENTRICITY>.0005424</ECCENTRICITY><INCLINATION>51.8780</INCLINATION><RA_OF_ASC_NODE>209.1623</RA_OF_ASC_NODE><ARG_OF_PERICENTER>195.6346</ARG_OF_PERICENTER><MEAN_ANOMALY>164.4473</MEAN_ANOMALY></meanElements><tleParameters><EPHEMERIS_TYPE>0</EPHEMERIS_TYPE><CLASSIFICATION_TYPE>U</CLASSIFICATION_TYPE><NORAD_CAT_ID>64818</NORAD_CAT_ID><ELEMENT_SET_NO>999</ELEMENT_SET_NO><REV_AT_EPOCH>249</REV_AT_EPOCH><BSTAR>.74225E-3</BSTAR><MEAN_MOTION_DOT>.25893E-3</MEAN_MOTION_DOT><MEAN_MOTION_DDOT>0</MEAN_MOTION_DDOT></tleParameters></data></segment></body></omm>
<omm id="CCSDS_OMM_VERS" version="2.0">
<header><CREATION_DATE/><ORIGINATOR/></header><body><segment><metadata><OBJECT_NAME>KUIPER-00072</OBJECT_NAME><OBJECT_ID>2025-151D</OBJECT_ID><CENTER_NAME>EARTH</CENTER_NAME><REF_FRAME>TEME</REF_FRAME><TIME_SYSTEM>UTC</TIME_SYSTEM><MEAN_ELEMENT_THEORY>SGP4</MEAN_ELEMENT_THEORY></metadata><data><meanElements><EPOCH>2025-08-01T12:58:35.914944</EPOCH><MEAN_MOTION>15.35330641</MEAN_MOTION><ECCENTRICITY>.0005005</ECCENTRICITY><INCLINATION>51.8766</INCLINATION><RA_OF_ASC_NODE>209.1785</RA_OF_ASC_NODE><ARG_OF_PERICENTER>207.5919</ARG_OF_PERICENTER><MEAN_ANOMALY>152.4802</MEAN_ANOMALY></meanElements><tleParameters><EPHEMERIS_TYPE>0</EPHEMERIS_TYPE><CLASSIFICATION_TYPE>U</CLASSIFICATION_TYPE><NORAD_CAT_ID>64819</NORAD_CAT_ID><ELEMENT_SET_NO>999</ELEMENT_SET_NO><REV_AT_EPOCH>249</REV_AT_EPOCH><BSTAR>.8025E-3</BSTAR><MEAN_MOTION_DOT>.27686E-3</MEAN_MOTION_DOT><MEAN_MOTION_DDOT>0</MEAN_MOTION_DDOT></tleParameters></data></segment></body></omm>
<omm id="CCSDS_OMM_VERS" version="2.0">
<header><CREATION_DATE/><ORIGINATOR/></header><body><segment><metadata><OBJECT_NAME>KUIPER-00073</OBJECT_NAME><OBJECT_ID>2025-151E</OBJECT_ID><CENTER_NAME>EARTH</CENTER_NAME><REF_FRAME>TEME</REF_FRAME><TIME_SYSTEM>UTC</TIME_SYSTEM><MEAN_ELEMENT_THEORY>SGP4</MEAN_ELEMENT_THEORY></metadata><data><meanElements><EPOCH>2025-08-01T11:23:16.154592</EPOCH><MEAN_MOTION>15.35450324</MEAN_MOTION><ECCENTRICITY>.0005026</ECCENTRICITY><INCLINATION>51.8784</INCLINATION><RA_OF_ASC_NODE>209.4931</RA_OF_ASC_NODE><ARG_OF_PERICENTER>202.1982</ARG_OF_PERICENTER><MEAN_ANOMALY>157.8787</MEAN_ANOMALY></meanElements><tleParameters><EPHEMERIS_TYPE>0</EPHEMERIS_TYPE><CLASSIFICATION_TYPE>U</CLASSIFICATION_TYPE><NORAD_CAT_ID>64820</NORAD_CAT_ID><ELEMENT_SET_NO>999</ELEMENT_SET_NO><REV_AT_EPOCH>366</REV_AT_EPOCH><BSTAR>.72246E-3</BSTAR><MEAN_MOTION_DOT>.24974E-3</MEAN_MOTION_DOT><MEAN_MOTION_DDOT>0</MEAN_MOTION_DDOT></tleParameters></data></segment></body></omm>
<omm id="CCSDS_OMM_VERS" version="2.0">
<header><CREATION_DATE/><ORIGINATOR/></header><body><segment><metadata><OBJECT_NAME>KUIPER-00074</OBJECT_NAME><OBJECT_ID>2025-151F</OBJECT_ID><CENTER_NAME>EARTH</CENTER_NAME><REF_FRAME>TEME</REF_FRAME><TIME_SYSTEM>UTC</TIME_SYSTEM><MEAN_ELEMENT_THEORY>SGP4</MEAN_ELEMENT_THEORY></metadata><data><meanElements><EPOCH>2025-08-01T12:56:05.431200</EPOCH><MEAN_MOTION>15.35536148</MEAN_MOTION><ECCENTRICITY>.000535</ECCENTRICITY><INCLINATION>51.8769</INCLINATION><RA_OF_ASC_NODE>209.1676</RA_OF_ASC_NODE><ARG_OF_PERICENTER>203.8472</ARG_OF_PERICENTER><MEAN_ANOMALY>156.2267</MEAN_ANOMALY></meanElements><tleParameters><EPHEMERIS_TYPE>0</EPHEMERIS_TYPE><CLASSIFICATION_TYPE>U</CLASSIFICATION_TYPE><NORAD_CAT_ID>64821</NORAD_CAT_ID><ELEMENT_SET_NO>999</ELEMENT_SET_NO><REV_AT_EPOCH>249</REV_AT_EPOCH><BSTAR>.70431E-3</BSTAR><MEAN_MOTION_DOT>.24403E-3</MEAN_MOTION_DOT><MEAN_MOTION_DDOT>0</MEAN_MOTION_DDOT></tleParameters></data></segment></body></omm>
<omm id="CCSDS_OMM_VERS" version="2.0">
<header><CREATION_DATE/><ORIGINATOR/></header><body><segment><metadata><OBJECT_NAME>KUIPER-00075</OBJECT_NAME><OBJECT_ID>2025-151G</OBJECT_ID><CENTER_NAME>EARTH</CENTER_NAME><REF_FRAME>TEME</REF_FRAME><TIME_SYSTEM>UTC</TIME_SYSTEM><MEAN_ELEMENT_THEORY>SGP4</MEAN_ELEMENT_THEORY></metadata><data><meanElements><EPOCH>2025-08-01T11:21:11.640960</EPOCH><MEAN_MOTION>15.35578725</MEAN_MOTION><ECCENTRICITY>.0004931</ECCENTRICITY><INCLINATION>51.8780</INCLINATION><RA_OF_ASC_NODE>209.4840</RA_OF_ASC_NODE><ARG_OF_PERICENTER>195.1689</ARG_OF_PERICENTER><MEAN_ANOMALY>164.9150</MEAN_ANOMALY></meanElements><tleParameters><EPHEMERIS_TYPE>0</EPHEMERIS_TYPE><CLASSIFICATION_TYPE>U</CLASSIFICATION_TYPE><NORAD_CAT_ID>64822</NORAD_CAT_ID><ELEMENT_SET_NO>999</ELEMENT_SET_NO><REV_AT_EPOCH>248</REV_AT_EPOCH><BSTAR>.65488E-3</BSTAR><MEAN_MOTION_DOT>.22688E-3</MEAN_MOTION_DOT><MEAN_MOTION_DDOT>0</MEAN_MOTION_DDOT></tleParameters></data></segment></body></omm>
<omm id="CCSDS_OMM_VERS" version="2.0">
<header><CREATION_DATE/><ORIGINATOR/></header><body><segment><metadata><OBJECT_NAME>KUIPER-00076</OBJECT_NAME><OBJECT_ID>2025-151H</OBJECT_ID><CENTER_NAME>EARTH</CENTER_NAME><REF_FRAME>TEME</REF_FRAME><TIME_SYSTEM>UTC</TIME_SYSTEM><MEAN_ELEMENT_THEORY>SGP4</MEAN_ELEMENT_THEORY></metadata><data><meanElements><EPOCH>2025-08-01T12:57:31.546944</EPOCH><MEAN_MOTION>15.35403711</MEAN_MOTION><ECCENTRICITY>.0005069</ECCENTRICITY><INCLINATION>51.8768</INCLINATION><RA_OF_ASC_NODE>209.1742</RA_OF_ASC_NODE><ARG_OF_PERICENTER>203.8294</ARG_OF_PERICENTER><MEAN_ANOMALY>156.2458</MEAN_ANOMALY></meanElements><tleParameters><EPHEMERIS_TYPE>0</EPHEMERIS_TYPE><CLASSIFICATION_TYPE>U</CLASSIFICATION_TYPE><NORAD_CAT_ID>64823</NORAD_CAT_ID><ELEMENT_SET_NO>999</ELEMENT_SET_NO><REV_AT_EPOCH>249</REV_AT_EPOCH><BSTAR>.66217E-3</BSTAR><MEAN_MOTION_DOT>.22817E-3</MEAN_MOTION_DOT><MEAN_MOTION_DDOT>0</MEAN_MOTION_DDOT></tleParameters></data></segment></body></omm>
<omm id="CCSDS_OMM_VERS" version="2.0">
<header><CREATION_DATE/><ORIGINATOR/></header><body><segment><metadata><OBJECT_NAME>KUIPER-00077</OBJECT_NAME><OBJECT_ID>2025-151J</OBJECT_ID><CENTER_NAME>EARTH</CENTER_NAME><REF_FRAME>TEME</REF_FRAME><TIME_SYSTEM>UTC</TIME_SYSTEM><MEAN_ELEMENT_THEORY>SGP4</MEAN_ELEMENT_THEORY></metadata><data><meanElements><EPOCH>2025-08-01T13:00:13.815648</EPOCH><MEAN_MOTION>15.35243338</MEAN_MOTION><ECCENTRICITY>.0005628</ECCENTRICITY><INCLINATION>51.8782</INCLINATION><RA_OF_ASC_NODE>209.1939</RA_OF_ASC_NODE><ARG_OF_PERICENTER>211.2053</ARG_OF_PERICENTER><MEAN_ANOMALY>148.8600</MEAN_ANOMALY></meanElements><tleParameters><EPHEMERIS_TYPE>0</EPHEMERIS_TYPE><CLASSIFICATION_TYPE>U</CLASSIFICATION_TYPE><NORAD_CAT_ID>64824</NORAD_CAT_ID><ELEMENT_SET_NO>999</ELEMENT_SET_NO><REV_AT_EPOCH>248</REV_AT_EPOCH><BSTAR>.76057E-3</BSTAR><MEAN_MOTION_DOT>.26142E-3</MEAN_MOTION_DOT><MEAN_MOTION_DDOT>0</MEAN_MOTION_DDOT></tleParameters></data></segment></body></omm>

</ndm>
